0 SL-24 R/B
1 29253U 06029B   13282.43597061  .00022890  00000-0  86832-3 0   878
2 29253 064.5007 242.8016 0021319 286.6677 222.0535 15.26649440399984
0 SL-24 R/B
1 29253U 06029B   13283.14485398  .00020621  00000-0  78281-3 0   886
2 29253 064.5005 240.4505 0021357 286.6310 157.8921 15.26671369400099
0 SL-24 R/B
1 29253U 06029B   13284.19448228  .00021535  00000-0  81613-3 0   892
2 29253 064.5004 236.9693 0021379 286.6769 166.3934 15.26706928400255
0 SL-24 R/B
1 29253U 06029B   13285.44172382  .00018416  00000-0  69852-3 0   903
2 29253 064.5002 232.8321 0021301 286.9741 180.8621 15.26752627400446
0 SL-24 R/B
1 29253U 06029B   13287.41376110  .00020070  00000-0  75884-3 0   919
2 29253 064.5008 226.2900 0021260 287.1916 219.2584 15.26818673400745
0 SL-24 R/B
1 29253U 06029B   13288.39490089  .00026515  00000-0  99748-3 0   925
2 29253 064.5010 223.0350 0021238 287.0698 212.0709 15.26866519400891
0 SL-24 R/B
1 29253U 06029B   13289.37710164  .00022816  00000-0  85884-3 0   930
2 29253 064.5014 219.7765 0021250 286.9876 210.8344 15.26908305401046
0 SL-24 R/B
1 29253U 06029B   13291.34210284  .00021851  00000-0  82094-3 0   947
2 29253 064.5017 213.2570 0021265 286.6353 212.2780 15.26989605401340
0 SL-24 R/B
1 29253U 06029B   13293.16980793  .00020716  00000-0  77717-3 0   954
2 29253 064.5013 207.1924 0021366 286.1774 179.6627 15.27060323401620
0 SL-24 R/B
1 29253U 06029B   13294.86532730  .00025746  00000-0  96113-3 0   966
2 29253 064.5008 201.5661 0021415 286.0935 140.4675 15.27128673401883
0 SL-24 R/B
1 29253U 06029B   13295.84754833  .00024015  00000-0  89626-3 0   975
2 29253 064.5005 198.3062 0021380 286.2547 140.0237 15.27166822402036
